OSCAR 7 (AO-7)          
1 07530U 74089B   18299.46006292 -.00000044  00000-0  48131-5 0  9992
2 07530 101.7062 264.8944 0012477  80.9383  30.1978 12.53635092 11043
UOSAT 2 (UO-11)         
1 14781U 84021B   18299.16443275  .00000049  00000-0  12224-4 0  9995
2 14781  97.6369 329.7053 0008931  22.9944 337.1669 14.83039146863857
LUSAT (LO-19)           
1 20442U 90005G   18298.86140161 -.00000009  00000-0  12925-4 0  9994
2 20442  98.6203 236.6040 0012672 121.7293 238.5128 14.32907822502549
ITAMSAT (IO-26)         
1 22826U 93061D   18299.46674873 -.00000012  00000-0  13017-4 0  9993
2 22826  98.8727 278.0816 0008253 319.1454  40.9108 14.30374840308524
RADIO ROSTO (RS-15)     
1 23439U 94085A   18298.97217892 -.00000030  00000-0  35391-3 0  9998
2 23439  64.8137 137.3237 0152945 158.1190 275.8903 11.27568890981312
JAS-2 (FO-29)           
1 24278U 96046B   18299.48182766 -.00000051  00000-0 -19251-4 0  9999
2 24278  98.5145 120.1416 0351107 130.1298 233.1169 13.53086520 95993
TECHSAT 1B (GO-32)      
1 25397U 98043D   18299.38818551 -.00000011  00000-0  14324-4 0  9999
2 25397  98.6609 237.7150 0001764  39.2125 320.9181 14.23653706 54393
ISS (ZARYA)             
1 25544U 98067A   18299.87068959  .00001869  00000-0  35789-4 0  9991
2 25544  51.6407  82.5020 0004108 341.5728 150.0879 15.53867650138991
PCSAT (NO-44)           
1 26931U 01043C   18299.44694799 -.00000029  00000-0  20553-4 0  9991
2 26931  67.0509 250.7114 0006940 259.0981 100.9340 14.30521084891321
SAUDISAT 1C (SO-50)     
1 27607U 02058C   18299.43109136 -.00000017  00000-0  18504-4 0  9994
2 27607  64.5562  48.8389 0076802 301.3411  58.0190 14.75490802852321
CUTE-1 (CO-55)          
1 27844U 03031E   18299.45528699  .00000046  00000-0  40324-4 0  9996
2 27844  98.6875 306.1789 0009717 358.3688   1.7456 14.22140315794858
CUBESAT XI-IV (CO-57)   
1 27848U 03031J   18299.24016944  .00000031  00000-0  34155-4 0  9991
2 27848  98.6958 306.4066 0009838   9.8176 350.3192 14.21741002794689
MOZHAYETS 4 (RS-22)     
1 27939U 03042A   18299.35291762  .00000058  00000-0  18948-4 0  9990
2 27939  98.0091  75.2497 0014207  92.7774 267.5070 14.66725783806047
CUBESAT XI-V (CO-58)    
1 28895U 05043F   18299.40408177  .00000105  00000-0  28997-4 0  9999
2 28895  97.9276  85.6912 0017141  19.3592 340.8259 14.63594445693079
CUTE-1.7+APD II (CO-65) 
1 32785U 08021C   18299.43199719  .00000198  00000-0  27091-4 0  9999
2 32785  97.5472 305.3461 0012265 329.2281  30.8216 14.88194914568699
DELFI-C3 (DO-64)        
1 32789U 08021G   18299.38228827  .00000858  00000-0  62308-4 0  9993
2 32789  97.4975 350.7892 0011843 203.3139 156.7553 15.06397161571536
SEEDS II (CO-66)        
1 32791U 08021J   18299.23823862  .00000337  00000-0  39737-4 0  9992
2 32791  97.5330 310.7953 0012100 306.3017  53.7083 14.90656072569032
YUBILEINY (RS-30)       
1 32953U 08025A   18299.30909504  .00000020  00000-0  75656-4 0  9991
2 32953  82.4990 291.1287 0018006 285.2950  74.6141 12.43086301473063
KKS-1 (KISEKI)          
1 33499U 09002H   18298.93770804  .00000124  00000-0  26396-4 0  9992
2 33499  98.3571 124.9836 0008181 232.4608 127.5857 14.75373687524039
SWISSCUBE               
1 35932U 09051B   18299.40297966  .00000105  00000-0  34862-4 0  9992
2 35932  98.5625  93.8571 0008040 160.1262 200.0250 14.56208407482530
BEESAT                  
1 35933U 09051C   18299.42110843  .00000104  00000-0  34575-4 0  9993
2 35933  98.5661  95.5049 0006019 170.0824 190.0493 14.56306765482643
ITUPSAT 1               
1 35935U 09051E   18299.41277273  .00000062  00000-0  25494-4 0  9998
2 35935  98.5774  95.7463 0008376 169.1274 191.0105 14.55477785482414
XIWANG-1 (HOPE-1)       
1 36122U 09072B   18299.42499083 -.00000025  00000-0  46029-4 0  9993
2 36122 100.0744 307.9054 0007588 165.2202 194.9140 13.16347065425922
JUGNU                   
1 37839U 11058B   18298.39772766  .00000314  00000-0  25692-4 0  9996
2 37839  19.9626 327.6712 0018718 242.0558 238.5054 14.12632493363806
SRMSAT                  
1 37841U 11058D   18299.18577885  .00000308  00000-0  23928-4 0  9995
2 37841  19.9733  14.7961 0011927 128.8245  77.4325 14.10617430363406
M-CUBED & EXP-1 PRIME   
1 37855U 11061F   18299.40845449  .00000672  00000-0  42004-4 0  9993
2 37855 101.7200  69.0875 0175385  53.7880 307.9405 15.04831276381384
STRAND-1                
1 39090U 13009E   18299.47088596  .00000043  00000-0  30333-4 0  9993
2 39090  98.5079 144.0701 0008049 268.2282  91.7982 14.35055336296658
SOMP                    
1 39134U 13015E   18299.45019185  .00001385  00000-0  74246-4 0  9996
2 39134  64.8642  62.1884 0006061 308.5300  51.5283 15.19522820304841
BEESAT-3                
1 39135U 13015F   18299.49264500  .00001211  00000-0  70895-4 0  9998
2 39135  64.8685  77.1322 0009364 244.1019 115.9142 15.16960395304561
BEESAT-2                
1 39136U 13015G   18299.44314658  .00000961  00000-0  59145-4 0  9990
2 39136  64.8693  80.4371 0010752 242.6991 117.3040 15.16415326304491
ZACUBE-1 (TSHEPISOSAT)  
1 39417U 13066B   18299.12043466  .00000216  00000-0  33419-4 0  9998
2 39417  97.5783 320.7074 0060559  86.4056 274.4081 14.80998809266176
GOMX 1                  
1 39430U 13066Q   18299.42061366  .00000181  00000-0  42288-4 0  9990
2 39430  97.7126 266.9485 0150079 276.6063  81.7984 14.59146709262299
CUBEBUG-2 (LO-74)       
1 39440U 13066AA  18299.41232048  .00000184  00000-0  32496-4 0  9990
2 39440  97.6002 306.8456 0081589 128.6968 232.1576 14.75738792265270
FUNCUBE-1 (AO-73)       
1 39444U 13066AE  18299.11417241  .00000273  00000-0  39903-4 0  9990
2 39444  97.5785 322.3896 0059650  81.4379 279.3588 14.81795817265047
UWE-3                   
1 39446U 13066AG  18299.27796255  .00000193  00000-0  32164-4 0  9997
2 39446  97.5877 313.3480 0071601 107.8794 253.0243 14.78273228264481
SPROUT                  
1 39770U 14029E   18299.34496146  .00000725  00000-0  87002-4 0  9993
2 39770  97.8808  39.3487 0010251 133.8591 226.3457 14.87027204239852
UNISAT-6                
1 40012U 14033C   18299.44690437  .00000178  00000-0  33846-4 0  9998
2 40012  97.7871 170.7139 0059291 135.3913 225.2089 14.73880606234030
DUCHIFAT-1              
1 40021U 14033M   18299.31498389  .00000451  00000-0  52045-4 0  9992
2 40021  97.9145 218.2568 0014303 104.0917 256.1891 14.90422936236484
FUNCUBE-3 (EO-79)       
1 40025U 14033R   18299.41117806  .00000239  00000-0  31478-4 0  9990
2 40025  97.9014 214.5084 0013791 110.8904 249.3790 14.88798681236310
NUDT-PHONESAT           
1 40900U 15049B   18299.39122377  .00001944  00000-0  88511-4 0  9990
2 40900  97.4416 306.1767 0011755 294.0176 174.0230 15.21844883171868
ZDPS 2A                 
1 40901U 15049C   18299.54261080  .00001007  00000-0  53835-4 0  9994
2 40901  97.4599 303.8675 0012390 306.3776 170.1900 15.17322916171574
ZDPS 2B                 
1 40902U 15049D   18299.40087557  .00000971  00000-0  52332-4 0  9995
2 40902  97.4509 301.5449 0012519 303.9100 163.9691 15.17108770171530
XW-2A                   
1 40903U 15049E   18299.39089745  .00001809  00000-0  45905-4 0  9994
2 40903  97.3710 335.4921 0012359 278.9144 207.0619 15.40986585174005
KAITUO 1A               
1 40904U 15049F   18299.38331887  .00000224  00000-0  15438-4 0  9999
2 40904  97.4627 300.5553 0013606 308.5706 187.0275 15.15146451171361
2015-049G               
1 40905U 15049G   18299.43122881  .00000249  00000-0  17269-4 0  9999
2 40905  97.4635 298.4689 0014527 301.1765 198.0352 15.14088642171277
XW-2C                   
1 40906U 15049H   18299.29155053  .00000585  00000-0  34460-4 0  9996
2 40906  97.4631 300.4199 0013678 300.0995 185.9521 15.15367088171349
XW-2D                   
1 40907U 15049J   18299.43088006  .00000607  00000-0  35471-4 0  9994
2 40907  97.4609 300.2422 0012762 296.3887 202.8061 15.15531233171378
LILACSAT 2              
1 40908U 15049K   18299.52928718  .00000505  00000-0  31717-4 0  9994
2 40908  97.4721 299.5221 0014639 299.3311 176.6133 15.13619649171230
XW-2F                   
1 40910U 15049M   18299.53332578  .00001106  00000-0  59610-4 0  9991
2 40910  97.4603 301.8976 0013423 290.8818 190.8641 15.16812522171368
XW-2B                   
1 40911U 15049N   18299.38157005  .00000456  00000-0  27547-4 0  9996
2 40911  97.4640 300.7767 0012765 296.8148 170.6612 15.15469737171264
KAITUO 1B               
1 40912U 15049P   18299.52105160  .00000997  00000-0  50729-4 0  9996
2 40912  97.4513 305.0255 0013579 274.6971 203.1757 15.19063165171605
TIANWANG 1C (TW-1C)     
1 40926U 15051B   18299.58470861  .00009116  00000-0  15722-3 0  9998
2 40926  97.1717 341.3873 0010799 149.6949 339.4981 15.51193127173667
TIANWANG 1A (TW-1A)     
1 40928U 15051D   18299.40685281  .00002434  00000-0  64229-4 0  9998
2 40928  97.1744 330.7688 0010678 198.3608 219.5252 15.39385929172964
LAPAN-A2 (IO-86)        
1 40931U 15052B   18299.49977701  .00000669  00000-0  42141-5 0  9991
2 40931   6.0004 293.7450 0012892  65.1319 295.0147 14.76588674166441
E-ST@R-II               
1 41459U 16025D   18299.45923514  .00001462  00000-0  79079-4 0  9998
2 41459  98.1259   9.0490 0171148  68.6587 293.2810 15.04789278137167
AAUSAT 4                
1 41460U 16025E   18299.17337772  .00001861  00000-0  98032-4 0  9997
2 41460  98.1190   9.4718 0162034  64.3901 297.3972 15.06380441137207
NUSAT 1 (LO-87)         
1 41557U 16033B   18299.45618207  .00001061  00000-0  42702-4 0  9994
2 41557  97.4321  23.2540 0014269  51.8351 308.4171 15.27042115134191
BEESAT-4                
1 41619U 16040W   18299.40192177  .00001256  00000-0  57170-4 0  9990
2 41619  97.4007   0.6553 0012927 125.8979 234.3459 15.22484699118056
ALSAT 1N                
1 41789U 16059G   18299.44166931  .00000056  00000-0  19760-4 0  9991
2 41789  98.1055   0.2711 0029200  36.9628 323.3583 14.64189002111226
CAS-2T & KS-1Q          
1 41847U 16066G   18299.20981510  .00000053  00000-0  19096-4 0  9995
2 41847  98.7387 330.7843 0365552 215.0341 142.6302 14.37931369103152
NAYIF-1 (EO-88)         
1 42017U 17008BX  18299.35970554  .00001343  00000-0  56993-4 0  9994
2 42017  97.4345   3.5660 0004705 280.7149  79.3559 15.24831213 94051
LILACSAT-1              
1 42725U 98067ME  18299.52749006  .00047646  00000-0  28262-3 0  9992
2 42725  51.6371  44.8116 0003661   5.3323 102.0344 15.77536478 81197
MAX VALIER SAT          
1 42778U 17036P   18299.19349100  .00000851  00000-0  40754-4 0  9999
2 42778  97.3886 356.6412 0011715 337.8698  22.2030 15.21567573 74425
FOX-1B (AO-91)          
1 43017U 17073E   18299.33476938  .00000326  00000-0  31364-4 0  9997
2 43017  97.7118 225.0339 0258522 204.4053 154.4740 14.78249871 50489
FOX-1D (AO-92)          
1 43137U 18004AC  18299.44971513  .00000885  00000-0  40707-4 0  9997
2 43137  97.5193   2.4245 0009582  11.2683 348.8766 15.22980221 43681
